{"type": "Feature", "properties": {}, "geometry": {"type": "MultiPolygon", "coordinates": [[[[-58.75, -34.85], [-58.15, -34.85], [-58.15, -34.4], [-58.75, -34.4], [-58.75, -34.85]]], [[[-65.85, -35.05], [-61.7, -35.05], [-61.7, -29.45], [-65.85, -29.45], [-65.85, -35.05]]], [[[-69.65, -31.95], [-65.75, -31.95], [-65.75, -27.95], [-69.65, -27.95], [-69.65, -31.95]]], [[[-68.2, -36.2], [-64.6, -36.2], [-64.6, -31.6], [-68.2, -31.6], [-68.2, -36.2]]], [[[-63.05, -34.55], [-58.8, -34.55], [-58.8, -27.95], [-63.05, -27.95], [-63.05, -34.55]]]]}}